NORAD_CAT_ID,OBJECT_NAME,OBJECT_TYPE,EPOCH,MEAN_MOTION,ECCENTRICITY,INCLINATION,RA_OF_ASC_NODE,ARG_OF_PERICENTER,MEAN_ANOMALY,BSTAR,MEAN_MOTION_DOT,MEAN_MOTION_DDOT,TLE_LINE0,TLE_LINE1,TLE_LINE2,SEMIMAJOR_AXIS,PERIOD,APOGEE,PERIGEE,DECAYED
55641.0,STARLINK-5065,PAYLOAD,2023-08-20 19:18:00,14.98331503,0.0003023,70.0012,14.0787,273.8625,86.2188,0.00038177,4.465e-05,0.0,0 STARLINK-5065,1 55641U 23021P   23232.80417051  .00004465  00000-0  38177-3 0  9995,2 55641  70.0012  14.0787 0003023 273.8625  86.2188 14.98331503 28900,6950.188,96.107,574.154,569.952,0.0
55641.0,STARLINK-5065,PAYLOAD,2023-08-21 19:20:01,14.98342766,0.0002992,70.0013,11.554,272.0498,88.0319,6.4314e-05,6.75e-06,0.0,0 STARLINK-5065,1 55641U 23021P   23233.80556763  .00000675  00000-0  64314-4 0  9992,2 55641  70.0013  11.5540 0002992 272.0498  88.0319 14.98342766 29059,6950.153,96.106,574.098,569.939,0.0
55641.0,STARLINK-5065,PAYLOAD,2023-08-22 09:45:14,14.98333438,0.0002929,70.0016,10.0398,279.0423,81.0404,-0.0001657,-2.07e-05,0.0,0 STARLINK-5065,1 55641U 23021P   23234.40641737 -.00002070  00000-0 -16570-3 0  9998,2 55641  70.0016  10.0398 0002929 279.0423  81.0404 14.98333438 29146,6950.182,96.107,574.083,570.012,0.0
55641.0,STARLINK-5065,PAYLOAD,2023-08-22 22:34:18,14.98338877,0.0002974,70.0011,8.6921,275.0742,85.0078,-0.00012662,-1.604e-05,0.0,0 STARLINK-5065,1 55641U 23021P   23234.94048953 -.00001604  00000-0 -12662-3 0  9998,2 55641  70.0011   8.6921 0002974 275.0742  85.0078 14.98338877 29228,6950.165,96.106,574.097,569.963,0.0
55641.0,STARLINK-5065,PAYLOAD,2023-08-24 21:02:11,14.98333456,0.0002911,70.0015,3.8109,275.3222,84.7605,3.6257e-05,3.4e-06,0.0,0 STARLINK-5065,1 55641U 23021P   23236.87652358  .00000340  00000-0  36257-4 0  9993,2 55641  70.0015   3.8109 0002911 275.3222  84.7605 14.98333456 29819,6950.182,96.107,574.07,570.024,0.0
55641.0,STARLINK-5065,PAYLOAD,2023-08-25 13:03:32,14.98331283,0.0003115,70.0011,2.128,274.1987,85.8816,-7.6425e-05,-1.005e-05,0.0,0 STARLINK-5065,1 55641U 23021P   23237.54412719 -.00001005  00000-0 -76425-4 0  9995,2 55641  70.0011   2.1280 0003115 274.1987  85.8816 14.98331283 29912,6950.189,96.107,574.219,569.889,0.0
55641.0,STARLINK-5065,PAYLOAD,2023-08-25 17:51:56,14.9833488,0.0003067,70.0013,1.6232,273.6043,86.4766,-2.9525e-05,-4.45e-06,0.0,0 STARLINK-5065,1 55641U 23021P   23237.74440320 -.00000445  00000-0 -29525-4 0  9992,2 55641  70.0013   1.6232 0003067 273.6043  86.4766 14.98334880 29948,6950.178,96.107,574.174,569.911,0.0
55641.0,STARLINK-5065,PAYLOAD,2023-08-25 21:04:12,14.98335867,0.0003068,70.0013,1.2867,273.651,86.4299,-1.1112e-05,-2.26e-06,0.0,0 STARLINK-5065,1 55641U 23021P   23237.87792160 -.00000226  00000-0 -11112-4 0  9998,2 55641  70.0013   1.2867 0003068 273.6510  86.4299 14.98335867 29664,6950.175,96.107,574.172,569.907,0.0
55641.0,STARLINK-5065,PAYLOAD,2023-08-26 09:53:17,14.98325761,0.0003109,70.0013,359.94,270.839,89.2413,-9.1753e-05,-1.187e-05,0.0,0 STARLINK-5065,1 55641U 23021P   23238.41201005 -.00001187  00000-0 -91753-4 0  9998,2 55641  70.0013 359.9400 0003109 270.8390  89.2413 14.98325761 29741,6950.206,96.107,574.232,569.91,0.0
55641.0,STARLINK-5065,PAYLOAD,2023-08-26 11:29:25,14.98326337,0.0003076,70.0012,359.7715,270.4307,89.6499,-8.1081e-05,-1.06e-05,0.0,0 STARLINK-5065,1 55641U 23021P   23238.47876950 -.00001060  00000-0 -81081-4 0  9994,2 55641  70.0012 359.7715 0003076 270.4307  89.6499 14.98326337 30058,6950.204,96.107,574.207,569.931,0.0
55641.0,STARLINK-5065,PAYLOAD,2023-08-26 17:53:57,14.98331676,0.0002996,70.0012,359.0981,270.3688,89.7128,-1.8656e-05,-3.16e-06,0.0,0 STARLINK-5065,1 55641U 23021P   23238.74580445 -.00000316  00000-0 -18656-4 0  9996,2 55641  70.0012 359.0981 0002996 270.3688  89.7128 14.98331676 29798,6950.188,96.107,574.135,569.97,0.0
55641.0,STARLINK-5065,PAYLOAD,2023-08-27 09:55:18,14.98330298,0.0003043,70.0012,357.4148,269.291,90.79,-1.6976e-05,-2.96e-06,0.0,0 STARLINK-5065,1 55641U 23021P   23239.41340514 -.00000296  00000-0 -16976-4 0  9992,2 55641  70.0012 357.4148 0003043 269.2910  90.7900 14.98330298 30199,6950.192,96.107,574.172,569.942,0.0
55641.0,STARLINK-5065,PAYLOAD,2023-08-27 17:55:58,14.98333123,0.0003008,70.0014,356.5734,269.301,90.7804,2.3706e-05,1.9e-06,0.0,0 STARLINK-5065,1 55641U 23021P   23239.74720209  .00000190  00000-0  23706-4 0  9991,2 55641  70.0014 356.5734 0003008 269.3010  90.7804 14.98333123 29949,6950.183,96.107,574.139,569.958,0.0
55641.0,STARLINK-5065,PAYLOAD,2023-08-28 08:21:11,14.98312505,0.0002935,70.0018,355.0592,270.1153,89.967,0.00028112,3.261e-05,0.0,0 STARLINK-5065,1 55641U 23021P   23240.34804963  .00003261  00000-0  28112-3 0  9996,2 55641  70.0018 355.0592 0002935 270.1153  89.9670 14.98312505 30039,6950.247,96.108,574.152,570.072,0.0
55641.0,STARLINK-5065,PAYLOAD,2023-08-28 16:21:51,14.98332306,0.0002929,70.0017,354.218,268.2807,91.8017,4.4954e-05,4.43e-06,0.0,0 STARLINK-5065,1 55641U 23021P   23240.68184216  .00000443  00000-0  44954-4 0  9997,2 55641  70.0017 354.2180 0002929 268.2807  91.8017 14.98332306 30082,6950.186,96.107,574.086,570.015,0.0
55641.0,STARLINK-5065,PAYLOAD,2023-08-29 00:22:31,14.98325456,0.0003777,70.0018,353.3761,267.2169,92.8558,-6.8493e-05,-9.1e-06,0.0,0 STARLINK-5065,1 55641U 23021P   23241.01564517 -.00000910  00000-0 -68493-4 0  9996,2 55641  70.0018 353.3761 0003777 267.2169  92.8558 14.98325456 30135,6950.207,96.107,574.697,569.447,0.0
55641.0,STARLINK-5065,PAYLOAD,2023-08-29 16:23:52,14.98331023,0.0003069,70.0013,351.6918,275.1496,84.9313,-1.1291e-05,-2.28e-06,0.0,0 STARLINK-5065,1 55641U 23021P   23241.68324385 -.00000228  00000-0 -11291-4 0  9992,2 55641  70.0013 351.6918 0003069 275.1496  84.9313 14.98331023 30239,6950.19,96.107,574.188,569.922,0.0
55641.0,STARLINK-5065,PAYLOAD,2023-08-29 19:36:07,14.98336302,0.0003097,70.0014,351.3553,273.3137,86.7668,4.3237e-05,4.23e-06,0.0,0 STARLINK-5065,1 55641U 23021P   23241.81675841  .00000423  00000-0  43237-4 0  9993,2 55641  70.0014 351.3553 0003097 273.3137  86.7668 14.98336302 30558,6950.173,96.107,574.191,569.886,0.0
55641.0,STARLINK-5065,PAYLOAD,2023-08-30 08:25:12,14.983299,0.0002835,70.0017,350.0102,266.5707,93.5127,4.8056e-06,-3.6e-07,0.0,0 STARLINK-5065,1 55641U 23021P   23242.35084312 -.00000036  00000-0  48056-5 0  9996,2 55641  70.0017 350.0102 0002835 266.5707  93.5127 14.98329900 30331,6950.193,96.107,574.029,570.088,0.0
55641.0,STARLINK-5065,PAYLOAD,2023-08-30 19:38:08,14.98337756,0.0003196,70.0016,348.8327,271.877,88.2023,6.137e-05,6.39e-06,0.0,0 STARLINK-5065,1 55641U 23021P   23242.81815579  .00000639  00000-0  61370-4 0  9995,2 55641  70.0016 348.8327 0003196 271.8770  88.2023 14.98337756 30709,6950.169,96.107,574.255,569.813,0.0
55641.0,STARLINK-5065,PAYLOAD,2023-08-31 06:51:06,14.98310487,0.0003363,70.0019,347.6539,274.9071,85.1704,0.00018318,2.092e-05,0.0,0 STARLINK-5065,1 55641U 23021P   23243.28549013  .00002092  00000-0  18318-3 0  9992,2 55641  70.0019 347.6539 0003363 274.9071  85.1704 14.98310487 30476,6950.253,96.108,574.456,569.781,0.0
55641.0,STARLINK-5065,PAYLOAD,2023-09-01 00:28:33,14.9835759,0.0003329,70.002,345.804,272.5905,87.4873,-0.00012069,-1.534e-05,0.0,0 STARLINK-5065,1 55641U 23021P   23244.01982710 -.00001534  00000-0 -12069-3 0  9998,2 55641  70.0020 345.8040 0003329 272.5905  87.4873 14.98357590 30587,6950.108,96.105,574.286,569.659,0.0
55641.0,STARLINK-5065,PAYLOAD,2023-09-01 13:17:38,14.9833327,0.0003051,70.0007,344.4543,268.3368,91.7441,3.2946e-05,3e-06,0.0,0 STARLINK-5065,1 55641U 23021P   23244.55391967  .00000300  00000-0  32946-4 0  9990,2 55641  70.0007 344.4543 0003051 268.3368  91.7441 14.98333270 30963,6950.183,96.107,574.168,569.927,0.0
55641.0,STARLINK-5065,PAYLOAD,2023-09-01 19:42:10,14.98335837,0.0003088,70.0006,343.7811,269.5638,90.5167,4.8653e-05,4.88e-06,0.0,0 STARLINK-5065,1 55641U 23021P   23244.82095700  .00000488  00000-0  48653-4 0  9995,2 55641  70.0006 343.7811 0003088 269.5638  90.5167 14.98335837 31004,6950.175,96.107,574.186,569.894,0.0
55641.0,STARLINK-5065,PAYLOAD,2023-09-02 13:19:39,14.9833146,0.0003021,70.0024,341.9288,267.9675,92.1138,2.8221e-05,2.44e-06,0.0,0 STARLINK-5065,1 55641U 23021P   23245.55531959  .00000244  00000-0  28221-4 0  9996,2 55641  70.0024 341.9288 0003021 267.9675  92.1138 14.98331460 31118,6950.188,96.107,574.153,569.954,0.0
55641.0,STARLINK-5065,PAYLOAD,2023-09-02 16:31:55,14.98334831,0.0003049,70.0019,341.5926,268.9527,91.1282,7.2422e-05,7.71e-06,0.0,0 STARLINK-5065,1 55641U 23021P   23245.68883598  .00000771  00000-0  72422-4 0  9996,2 55641  70.0019 341.5926 0003049 268.9527  91.1282 14.98334831 30836,6950.178,96.107,574.162,569.924,0.0
55641.0,STARLINK-5065,PAYLOAD,2023-09-03 13:21:39,14.98339598,0.0002943,70.0024,339.405,271.5249,88.5572,4.2876e-05,4.19e-06,0.0,0 STARLINK-5065,1 55641U 23021P   23246.55671137  .00000419  00000-0  42876-4 0  9996,2 55641  70.0024 339.4050 0002943 271.5249  88.5572 14.98339598 31264,6950.163,96.106,574.074,569.983,0.0
55641.0,STARLINK-5065,PAYLOAD,2023-09-03 22:58:28,14.98338049,0.0003358,70.0006,338.3949,272.1691,87.9083,-2.5371e-05,-3.96e-06,0.0,0 STARLINK-5065,1 55641U 23021P   23246.95727186 -.00000396  00000-0 -25371-4 0  9993,2 55641  70.0006 338.3949 0003358 272.1691  87.9083 14.98338049 31022,6950.168,96.106,574.367,569.699,0.0
55641.0,STARLINK-5065,PAYLOAD,2023-09-04 05:23:01,14.98327951,0.0002999,70.0017,337.7241,269.3127,90.7689,-5.3916e-05,-7.36e-06,0.0,0 STARLINK-5065,1 55641U 23021P   23247.22431980 -.00000736  00000-0 -53916-4 0  9992,2 55641  70.0017 337.7241 0002999 269.3127  90.7689 14.98327951 31062,6950.199,96.107,574.149,569.98,0.0
55641.0,STARLINK-5065,PAYLOAD,2023-09-04 06:59:09,14.98325036,0.0002854,70.0021,337.5541,270.2526,89.8306,-5.6113e-05,-7.62e-06,0.0,0 STARLINK-5065,1 55641U 23021P   23247.29108228 -.00000762  00000-0 -56113-4 0  9996,2 55641  70.0021 337.5541 0002854 270.2526  89.8306 14.98325036 31373,6950.208,96.107,574.057,570.09,0.0
